[{"OBJECT_NAME":"GEOSCAN 3 (RS92S3)","OBJECT_ID":"2025-155T","EPOCH":"2026-03-09T22:52:10.587648","MEAN_MOTION":15.31696739,"ECCENTRICITY":0.00068078,"INCLINATION":97.4455,"RA_OF_ASC_NODE":37.9971,"ARG_OF_PERICENTER":154.1387,"MEAN_ANOMALY":206.0196,"EPHEMERIS_TYPE":0,"CLASSIFICATION_TYPE":"U","NORAD_CAT_ID":64893,"ELEMENT_SET_NO":999,"REV_AT_EPOCH":6564,"BSTAR":0.00078414081,"MEAN_MOTION_DOT":0.00023985,"MEAN_MOTION_DDOT":0},{"OBJECT_NAME":"STARLINK-35370","OBJECT_ID":"2025-235AD","EPOCH":"2026-03-09T22:12:15.417216","MEAN_MOTION":15.30208642,"ECCENTRICITY":0.00010404,"INCLINATION":53.1579,"RA_OF_ASC_NODE":244.4481,"ARG_OF_PERICENTER":81.4609,"MEAN_ANOMALY":278.651,"EPHEMERIS_TYPE":0,"CLASSIFICATION_TYPE":"U","NORAD_CAT_ID":66085,"ELEMENT_SET_NO":999,"REV_AT_EPOCH":2292,"BSTAR":0.0012563086,"MEAN_MOTION_DOT":0.00037045,"MEAN_MOTION_DDOT":0}]
